JINJUSAT-1B             
1 63210U 25052A   26068.66363707  .00019955  00000+0  68430-3 0  9998
2 63210  97.4113 325.4613 0005550  82.1930 277.9941 15.30194857 54866
STARLINK-35432          
1 66021U 25232S   26068.80832715  .00020069  00000+0  68795-3 0  9999
2 66021  53.1590 103.3633 0001331  93.8180 266.2973 15.30196323 23458
