[{"OBJECT_NAME":"JINJUSAT-1B","OBJECT_ID":"2025-052A","EPOCH":"2026-03-09T15:55:38.242848","MEAN_MOTION":15.30194857,"ECCENTRICITY":0.00055504,"INCLINATION":97.4113,"RA_OF_ASC_NODE":325.4613,"ARG_OF_PERICENTER":82.193,"MEAN_ANOMALY":277.9941,"EPHEMERIS_TYPE":0,"CLASSIFICATION_TYPE":"U","NORAD_CAT_ID":63210,"ELEMENT_SET_NO":999,"REV_AT_EPOCH":5486,"BSTAR":0.00068430401,"MEAN_MOTION_DOT":0.00019955,"MEAN_MOTION_DDOT":0},{"OBJECT_NAME":"STARLINK-35432","OBJECT_ID":"2025-232S","EPOCH":"2026-03-09T19:23:59.465760","MEAN_MOTION":15.30196323,"ECCENTRICITY":0.00013319,"INCLINATION":53.159,"RA_OF_ASC_NODE":103.3633,"ARG_OF_PERICENTER":93.818,"MEAN_ANOMALY":266.2973,"EPHEMERIS_TYPE":0,"CLASSIFICATION_TYPE":"U","NORAD_CAT_ID":66021,"ELEMENT_SET_NO":999,"REV_AT_EPOCH":2345,"BSTAR":0.00068795217,"MEAN_MOTION_DOT":0.00020069,"MEAN_MOTION_DDOT":0}]
